0000122300
00001
SMPA01 RJTD 070000
AAXX 07004
91165 32566 40314 10261 20211 30142 40176 58019 92353=
91203 11474 71010 10306 20270 30124 40129 5//// 60114 70182 82231=
91212 12466 61213 10289 20244 30034 40115 50001 69901 92354=
91285 32866 60410 10294 20183 30148 40160 56014 92353=
91334 11474 79903 10292 20276 30115 40118 50005 60194 70286 82171=
91339 11474 80807 10294 20244 30091 40097 60544 70282 8637/=
91348 11474 81006 10292 20254 30071 40124 50002 60044 70282 8217/=
91353 11474 80505 10322 20272 30100 40101 5//// 60084 70282 888//=
91356 11466 81107 10306 20253 30103 40110 5//// 60024 725// 85246=
91367 11474 31306 10311 20274 69354 70181 83100=
91376 31469 81214 10280 20250 30104 761// 92353=
91408 11474 70203 10253 20242 30032 40091 60024 70282 84278=
91413 11469 61210 10299 20260 30076 40101 52014 60074 70282 83201=
91425 11474 82203 10261 20250 30135 40136 5//// 60234 78082 882//=
91434 11474 80503 10289 20243 30185 40186 5//// 60064 70282 882//=
91610 11599 60705 10308 20265 40096 57010 60001 70222 83101=
91155 NIL=
91217 NIL=
91232 NIL=
91250 NIL=
91275 NIL=
91317 NIL=
91324 NIL=
91366 NIL=
91369 NIL=
91371 NIL=
91378 NIL=
91601 NIL=
0000013400
00002
SMJP02 RJTD 070000 CCA
AAXX 07004
47772 12/84 23606 10175 20051 30077 40175 50009 60002 82100
  333 20135 79999=
0000173500
00003
SMJP01 RJTD 070000
AAXX 07004
47401 17/70 /3608 10103 20061 30160 40174 53002 69902 70060
  333 20037=
47412 11/70 63311 10109 20030 30138 40170 51004 69902 70182 86200
  333 20050 70065=
47420 17/70 /0310 10043 20020 30138 40172 51008 69952 70060
  333 20028=
47426 17/70 /1208 10077 20054 30115 40162 53011 60052 70060
  333 20045=
47582 17/70 /3109 10112 20057 30151 40178 53009 69902 76160
  333 20090=
47590 12/82 33517 10160 20041 30096 40148 51009 60002 83230
  333 20091 79999=
47600 15/70 /0407 10149 20075 30193 40201 51011 60002
  333 20067=
47648 15/70 /0218 10158 20076 30116 40149 51025 60102
  333 20138=
47662 11/81 23310 10170 20044 30118 40147 50015 69952 70281 82230
  333 20110 70195=
47678 17/70 /0417 10177 20144 39938 40116 53015 60022 70060
  333 20165=
47740 15/70 /0711 10144 20092 30173 40207 51019 60002
  333 20093=
47778 15/70 /1207 10207 20051 30055 40135 51014 69902
  333 20166=
47807 12975 10106 10201 20075 30161 40179 51020 60002 80001
  333 20142 70000=
47827 12/65 10503 10239 20154 30096 40132 51017 60002 81100
  333 20199 70000=
47843 15/70 /0311 10202 20072 30123 40154 51007 60002
  333 20147=
47893 15/70 /0606 10219 20026 30146 40152 51010 60002
  333 20163=
47909 15/67 /3607 10234 20200 30099 40108 52015 69902
  333 20227=
47918 15/70 /2402 10255 20222 30101 40118 53017 60002
  333 20242=
47936 12/70 60313 10253 20194 30048 40105 51017 60002 82201
  333 20235 70005=
47945 17/50 /3408 10235 20230 30049 40073 53011 69902 76160
  333 20221=
47971 17/37 /1904 10233 20231 30082 40092 57002 60082 76160
  333 20230=
47991 16/// /1410 10276 20243 30143 40153 58001 60302
  333 20223=
