SMPA01 RJTD 070000
AAXX 07004
91165 32566 40314 10261 20211 30142 40176 58019 92353=
91203 11474 71010 10306 20270 30124 40129 5//// 60114 70182 82231=
91212 12466 61213 10289 20244 30034 40115 50001 69901 92354=
91285 32866 60410 10294 20183 30148 40160 56014 92353=
91334 11474 79903 10292 20276 30115 40118 50005 60194 70286 82171=
91339 11474 80807 10294 20244 30091 40097 60544 70282 8637/=
91348 11474 81006 10292 20254 30071 40124 50002 60044 70282 8217/=
91353 11474 80505 10322 20272 30100 40101 5//// 60084 70282 888//=
91356 11466 81107 10306 20253 30103 40110 5//// 60024 725// 85246=
91367 11474 31306 10311 20274 69354 70181 83100=
91376 31469 81214 10280 20250 30104 761// 92353=
91408 11474 70203 10253 20242 30032 40091 60024 70282 84278=
91413 11469 61210 10299 20260 30076 40101 52014 60074 70282 83201=
91425 11474 82203 10261 20250 30135 40136 5//// 60234 78082 882//=
91434 11474 80503 10289 20243 30185 40186 5//// 60064 70282 882//=
91610 11599 60705 10308 20265 40096 57010 60001 70222 83101=
91155 NIL=
91217 NIL=
91232 NIL=
91250 NIL=
91275 NIL=
91317 NIL=
91324 NIL=
91366 NIL=
91369 NIL=
91371 NIL=
91378 NIL=
91601 NIL=